NORAD_CAT_ID,OBJECT_NAME,OBJECT_TYPE,EPOCH,MEAN_MOTION,ECCENTRICITY,INCLINATION,RA_OF_ASC_NODE,ARG_OF_PERICENTER,MEAN_ANOMALY,BSTAR,MEAN_MOTION_DOT,MEAN_MOTION_DDOT,TLE_LINE0,TLE_LINE1,TLE_LINE2,SEMIMAJOR_AXIS,PERIOD,APOGEE,PERIGEE,DECAYED
52678.0,STARLINK-4074,PAYLOAD,2023-10-02 20:02:27,15.08829649,0.0001297,53.2158,174.4522,95.0616,265.0524,-1.0322e-05,-4.52e-06,0.0,0 STARLINK-4074,1 52678U 22053Y   23275.83504059 -.00000452  00000-0 -10322-4 0  9998,2 52678  53.2158 174.4522 0001297  95.0616 265.0524 15.08829649 76981,6917.912,95.438,540.674,538.88,0.0
52678.0,STARLINK-4074,PAYLOAD,2023-10-03 10:20:56,15.08840514,0.0001701,53.2148,171.7735,89.2229,270.8958,0.00077482,0.00012065,0.0,0 STARLINK-4074,1 52678U 22053Y   23276.43120466  .00012065  00000-0  77482-3 0  9991,2 52678  53.2148 171.7735 0001701  89.2229 270.8958 15.08840514 77071,6917.879,95.438,540.921,538.567,0.0
52678.0,STARLINK-4074,PAYLOAD,2023-10-03 21:28:38,15.08847416,0.0001261,53.2147,169.6934,102.7724,257.3409,0.001061,0.00016642,0.0,0 STARLINK-4074,1 52678U 22053Y   23276.89488533  .00016642  00000-0  10610-2 0  9997,2 52678  53.2147 169.6934 0001261 102.7724 257.3409 15.08847416 77146,6917.858,95.437,540.595,538.85,0.0
52678.0,STARLINK-4074,PAYLOAD,2023-10-03 23:04:01,15.08839977,0.0001692,53.2137,169.3965,87.9441,272.1745,0.00065427,0.0001014,0.0,0 STARLINK-4074,1 52678U 22053Y   23276.96112708  .00010140  00000-0  65427-3 0  9997,2 52678  53.2137 169.3965 0001692  87.9441 272.1745 15.08839977 76728,6917.88,95.438,540.916,538.575,0.0
52678.0,STARLINK-4074,PAYLOAD,2023-10-04 10:11:43,15.08848669,0.0001562,53.2145,167.315,81.6428,278.4741,0.00060893,9.419e-05,0.0,0 STARLINK-4074,1 52678U 22053Y   23277.42480514  .00009419  00000-0  60893-3 0  9991,2 52678  53.2145 167.3150 0001562  81.6428 278.4741 15.08848669 77222,6917.854,95.437,540.799,538.638,0.0
52678.0,STARLINK-4074,PAYLOAD,2023-10-04 21:19:24,15.08856461,0.0001641,53.2145,165.2325,80.9273,279.1905,0.0005298,8.158e-05,0.0,0 STARLINK-4074,1 52678U 22053Y   23277.88848160  .00008158  00000-0  52980-3 0  9993,2 52678  53.2145 165.2325 0001641  80.9273 279.1905 15.08856461 77297,6917.83,95.437,540.83,538.56,0.0
52678.0,STARLINK-4074,PAYLOAD,2023-10-05 10:02:29,15.08859916,0.0001258,53.2151,162.8535,87.3103,272.8033,0.00050003,7.683e-05,0.0,0 STARLINK-4074,1 52678U 22053Y   23278.41839537  .00007683  00000-0  50003-3 0  9997,2 52678  53.2151 162.8535 0001258  87.3103 272.8033 15.08859916 76948,6917.82,95.436,540.555,538.814,0.0
52678.0,STARLINK-4074,PAYLOAD,2023-10-05 19:34:48,15.08848385,0.0001795,53.2163,161.0662,108.581,251.5377,0.00017867,2.557e-05,0.0,0 STARLINK-4074,1 52678U 22053Y   23278.81583722  .00002557  00000-0  17867-3 0  9999,2 52678  53.2163 161.0662 0001795 108.5810 251.5377 15.08848385 77001,6917.855,95.437,540.962,538.478,0.0
52678.0,STARLINK-4074,PAYLOAD,2023-10-05 21:10:11,15.08842698,0.0001171,53.2159,160.7723,87.0447,273.0679,4.0915e-05,3.63e-06,0.0,0 STARLINK-4074,1 52678U 22053Y   23278.88207878  .00000363  00000-0  40915-4 0  9995,2 52678  53.2159 160.7723 0001171  87.0447 273.0679 15.08842698 77448,6917.872,95.437,540.547,538.927,0.0
52678.0,STARLINK-4074,PAYLOAD,2023-10-06 01:56:20,15.08846982,0.0001556,53.2155,159.8757,117.0559,243.0592,0.00019237,2.775e-05,0.0,0 STARLINK-4074,1 52678U 22053Y   23279.08079619  .00002775  00000-0  19237-3 0  9999,2 52678  53.2155 159.8757 0001556 117.0559 243.0592 15.08846982 77479,6917.859,95.437,540.8,538.648,0.0
52678.0,STARLINK-4074,PAYLOAD,2023-10-06 22:36:22,15.08835335,0.0001163,53.2151,156.0138,86.7267,273.3859,0.00034091,5.141e-05,0.0,0 STARLINK-4074,1 52678U 22053Y   23279.94192801  .00005141  00000-0  34091-3 0  9998,2 52678  53.2151 156.0138 0001163  86.7267 273.3859 15.08835335 77606,6917.895,95.438,540.564,538.955,0.0
52678.0,STARLINK-4074,PAYLOAD,2023-10-07 22:27:09,15.088563,0.0001087,53.2157,151.5538,81.6047,278.5068,0.00096172,0.00015058,0.0,0 STARLINK-4074,1 52678U 22053Y   23280.93552827  .00015058  00000-0  96172-3 0  9993,2 52678  53.2157 151.5538 0001087  81.6047 278.5068 15.08856300 77751,6917.831,95.437,540.448,538.944,0.0
52678.0,STARLINK-4074,PAYLOAD,2023-10-08 07:59:28,15.08860834,0.0001112,53.2159,149.7693,79.6926,280.4191,0.00075315,0.00011726,0.0,0 STARLINK-4074,1 52678U 22053Y   23281.33296434  .00011726  00000-0  75315-3 0  9991,2 52678  53.2159 149.7693 0001112  79.6926 280.4191 15.08860834 77381,6917.817,95.436,540.451,538.912,0.0
52678.0,STARLINK-4074,PAYLOAD,2023-10-08 19:07:10,15.08844867,0.0001335,53.2158,147.6883,89.9185,270.196,0.0001329,1.828e-05,0.0,0 STARLINK-4074,1 52678U 22053Y   23281.79664662  .00001828  00000-0  13290-3 0  9999,2 52678  53.2158 147.6883 0001335  89.9185 270.1960 15.08844867 77452,6917.866,95.437,540.654,538.807,0.0
52678.0,STARLINK-4074,PAYLOAD,2023-10-08 20:42:33,15.08848392,0.0001285,53.2158,147.3911,87.664,272.4499,0.00032659,4.915e-05,0.0,0 STARLINK-4074,1 52678U 22053Y   23281.86288576  .00004915  00000-0  32659-3 0  9993,2 52678  53.2158 147.3911 0001285  87.6640 272.4499 15.08848392 77893,6917.855,95.437,540.609,538.831,0.0
52678.0,STARLINK-4074,PAYLOAD,2023-10-09 07:50:15,15.08847421,0.0001295,53.2159,145.3065,80.2028,279.911,0.00058565,9.047e-05,0.0,0 STARLINK-4074,1 52678U 22053Y   23282.32656631  .00009047  00000-0  58565-3 0  9991,2 52678  53.2159 145.3065 0001295  80.2028 279.9110 15.08847421 77964,6917.858,95.437,540.619,538.827,0.0
52678.0,STARLINK-4074,PAYLOAD,2023-10-09 18:57:57,15.08836896,0.000163,53.2156,143.2286,82.5108,277.6069,0.0002223,3.251e-05,0.0,0 STARLINK-4074,1 52678U 22053Y   23282.79025120  .00003251  00000-0  22230-3 0  9996,2 52678  53.2156 143.2286 0001630  82.5108 277.6069 15.08836896 77603,6917.89,95.438,540.882,538.627,0.0
52678.0,STARLINK-4074,PAYLOAD,2023-10-09 20:33:20,15.08833747,0.0001654,53.2165,142.9292,81.7653,278.3527,4.2388e-06,-2.21e-06,0.0,0 STARLINK-4074,1 52678U 22053Y   23282.85649171 -.00000221  00000-0  42388-5 0  9994,2 52678  53.2165 142.9292 0001654  81.7653 278.3527 15.08833747 78046,6917.9,95.438,540.909,538.62,0.0
52678.0,STARLINK-4074,PAYLOAD,2023-10-10 14:02:35,15.08838292,0.000143,53.2161,139.6573,85.7867,274.3289,0.00015155,2.125e-05,0.0,0 STARLINK-4074,1 52678U 22053Y   23283.58513154  .00002125  00000-0  15155-3 0  9990,2 52678  53.2161 139.6573 0001430  85.7867 274.3289 15.08838292 78153,6917.886,95.438,540.74,538.761,0.0
52678.0,STARLINK-4074,PAYLOAD,2023-10-10 21:59:30,15.08853747,0.0001251,53.2152,138.1726,90.3707,269.7428,0.00059883,9.259e-05,0.0,0 STARLINK-4074,1 52678U 22053Y   23283.91632713  .00009259  00000-0  59883-3 0  9991,2 52678  53.2152 138.1726 0001251  90.3707 269.7428 15.08853747 78204,6917.838,95.437,540.569,538.838,0.0
52678.0,STARLINK-4074,PAYLOAD,2023-10-10 23:34:53,15.08858994,0.0001242,53.2151,137.8754,89.537,270.5765,0.00078003,0.00012154,0.0,0 STARLINK-4074,1 52678U 22053Y   23283.98256591  .00012154  00000-0  78003-3 0  9997,2 52678  53.2151 137.8754 0001242  89.5370 270.5765 15.08858994 77781,6917.822,95.436,540.547,538.828,0.0
52678.0,STARLINK-4074,PAYLOAD,2023-10-11 07:31:49,15.08846309,0.0001316,53.2151,136.3885,88.2025,271.9118,0.00041898,6.388e-05,0.0,0 STARLINK-4074,1 52678U 22053Y   23284.31376820  .00006388  00000-0  41898-3 0  9997,2 52678  53.2151 136.3885 0001316  88.2025 271.9118 15.08846309 77835,6917.861,95.437,540.636,538.816,0.0
52678.0,STARLINK-4074,PAYLOAD,2023-10-11 13:53:22,15.08843922,0.0001777,53.2143,135.2026,81.0438,279.0756,0.00026563,3.942e-05,0.0,0 STARLINK-4074,1 52678U 22053Y   23284.57873055  .00003942  00000-0  26563-3 0  9992,2 52678  53.2143 135.2026 0001777  81.0438 279.0756 15.08843922 78309,6917.868,95.437,540.963,538.504,0.0
52678.0,STARLINK-4074,PAYLOAD,2023-10-11 18:39:31,15.08835091,0.0001521,53.2143,134.3069,93.2707,266.8459,6.4633e-05,7.41e-06,0.0,0 STARLINK-4074,1 52678U 22053Y   23284.77745190  .00000741  00000-0  64633-4 0  9997,2 52678  53.2143 134.3069 0001521  93.2707 266.8459 15.08835091 77904,6917.895,95.438,540.813,538.708,0.0
52678.0,STARLINK-4074,PAYLOAD,2023-10-12 07:22:36,15.08842093,0.0001468,53.2146,131.9267,92.05,268.066,0.000284,4.235e-05,0.0,0 STARLINK-4074,1 52678U 22053Y   23285.30737223  .00004235  00000-0  28400-3 0  9998,2 52678  53.2146 131.9267 0001468  92.0500 268.0660 15.08842093 78413,6917.874,95.437,540.755,538.723,0.0
52678.0,STARLINK-4074,PAYLOAD,2023-10-12 20:05:41,15.08852434,0.0001422,53.2144,129.5484,87.4866,272.6288,0.00065196,0.00010107,0.0,0 STARLINK-4074,1 52678U 22053Y   23285.83729043  .00010107  00000-0  65196-3 0  9995,2 52678  53.2144 129.5484 0001422  87.4866 272.6288 15.08852434 78066,6917.842,95.437,540.691,538.724,0.0
52678.0,STARLINK-4074,PAYLOAD,2023-10-13 07:13:23,15.08847519,0.0001386,53.2144,127.466,90.5283,269.5868,0.00029811,4.461e-05,0.0,0 STARLINK-4074,1 52678U 22053Y   23286.30096944  .00004461  00000-0  29811-3 0  9995,2 52678  53.2144 127.4660 0001386  90.5283 269.5868 15.08847519 78131,6917.857,95.437,540.681,538.764,0.0
52678.0,STARLINK-4074,PAYLOAD,2023-10-13 19:56:28,15.08850584,0.0001396,53.2145,125.0887,82.7743,277.3408,0.0002792,4.16e-05,0.0,0 STARLINK-4074,1 52678U 22053Y   23286.83088754  .00004160  00000-0  27920-3 0  9998,2 52678  53.2145 125.0887 0001396  82.7743 277.3408 15.08850584 78641,6917.848,95.437,540.679,538.747,0.0
52678.0,STARLINK-4074,PAYLOAD,2023-10-14 13:25:43,15.08841148,0.0001403,53.2148,121.8167,84.3943,275.721,2.2766e-05,7.4e-07,0.0,0 STARLINK-4074,1 52678U 22053Y   23287.55952904  .00000074  00000-0  22766-4 0  9999,2 52678  53.2148 121.8167 0001403  84.3943 275.7210 15.08841148 78759,6917.877,95.437,540.712,538.771,0.0
52678.0,STARLINK-4074,PAYLOAD,2023-10-14 19:47:15,15.08838098,0.0001373,53.2154,120.6262,88.5884,271.5266,1.008e-05,-1.28e-06,0.0,0 STARLINK-4074,1 52678U 22053Y   23287.82449020 -.00000128  00000-0  10080-4 0  9996,2 52678  53.2154 120.6262 0001373  88.5884 271.5266 15.08838098 78367,6917.886,95.438,540.701,538.801,0.0
